OBJECT_NAME,OBJECT_ID,EPOCH,MEAN_MOTION,ECCENTRICITY,INCLINATION,RA_OF_ASC_NODE,ARG_OF_PERICENTER,MEAN_ANOMALY,EPHEMERIS_TYPE,CLASSIFICATION_TYPE,NORAD_CAT_ID,ELEMENT_SET_NO,REV_AT_EPOCH,BSTAR,MEAN_MOTION_DOT,MEAN_MOTION_DDOT
STARLINK-35704,2025-244R,2026-07-12T11:22:35.399712,15.30163782,.00013173,53.1622,10.3690,40.2558,319.8540,0,U,66221,999,4076,-.1881833E-3,-.5922E-4,0
STARLINK-35666,2025-244S,2026-07-12T11:27:07.624512,15.30200201,.00015025,53.1614,10.3875,54.6699,305.4442,0,U,66222,999,4076,.4013889E-3,.11547E-3,0
STARLINK-35664,2025-244T,2026-07-12T11:36:14.584032,15.30209040,.00016434,53.1619,10.4285,40.1614,319.9508,0,U,66223,999,4076,.41774836E-3,.12037E-3,0
STARLINK-35733,2025-244U,2026-07-11T21:49:31.170720,15.30192079,.000106,53.1597,13.2374,79.0361,281.0759,0,U,66224,999,4067,.37494E-3,.10759E-3,0
STARLINK-35734,2025-244V,2026-07-12T11:31:41.010528,15.30202473,.00013988,53.1606,10.4040,55.2183,304.8949,0,U,66225,999,4076,.37978931E-3,.10906E-3,0
STARLINK-34466,2025-244W,2026-07-11T21:03:29.448288,15.34408373,.0000606,53.1586,11.6257,83.0673,277.0398,0,U,66226,999,4069,.47302E-3,.15643E-3,0
STARLINK-34882,2025-244X,2026-07-11T16:40:17.142240,15.34390709,.00008767,53.1607,12.6127,73.9631,286.1468,0,U,66227,999,4066,.40859002E-3,.13449E-3,0
STARLINK-35731,2025-244Y,2026-07-12T10:55:32.045664,15.34383261,.00027989,53.1586,8.8226,166.2529,193.8551,0,U,66228,999,4078,.69012211E-3,.23001E-3,0
STARLINK-35758,2025-244Z,2026-07-12T11:13:42.906144,15.34399705,.00006869,53.1604,8.9064,104.5591,255.5488,0,U,66229,999,4078,.56025E-3,.186E-3,0
STARLINK-35736,2025-244AA,2026-07-12T11:21:03.835584,15.30193246,.00009818,53.1601,10.3562,64.1852,295.9250,0,U,66230,999,4076,.41940477E-3,.1208E-3,0
STARLINK-35735,2025-244AB,2026-07-12T12:02:11.561280,15.34401464,.00011417,53.1597,9.1148,94.0727,266.0406,0,U,66231,999,4078,.59931235E-3,.19927E-3,0
STARLINK-35753,2025-244AC,2026-07-12T11:59:02.084352,15.30198854,.00010526,53.1611,10.5131,145.8746,214.2323,0,U,66232,999,4076,.61815226E-3,.17992E-3,0
STARLINK-35626,2025-244AD,2026-07-12T11:54:28.380384,15.30210862,.00007855,53.1593,10.4972,83.8640,276.2450,0,U,66233,999,4076,.4311929E-3,.12437E-3,0
STARLINK-35537,2025-245A,2026-07-11T20:58:53.253408,15.31701987,.00011543,53.1583,66.0866,75.2459,284.8670,0,U,66234,999,4028,.36259075E-3,.10904E-3,0
STARLINK-35541,2025-245B,2026-07-11T20:45:34.308288,15.31683148,.00010239,53.1583,66.7414,38.7117,321.3957,0,U,66235,999,4022,.33817026E-3,.10138E-3,0
STARLINK-35454,2025-245C,2026-07-12T01:07:46.439328,15.30200263,.00009164,53.1601,66.4490,118.5175,241.5918,0,U,66236,999,4013,.52864084E-3,.1533E-3,0
STARLINK-35557,2025-245D,2026-07-12T00:39:00.455904,15.34391558,.00012569,53.1590,63.4900,85.6644,274.4502,0,U,66237,999,4033,.59802411E-3,.19877E-3,0
STARLINK-35556,2025-245E,2026-07-12T00:42:02.087712,15.34409430,.00014894,53.1571,63.5113,62.2699,297.8454,0,U,66238,999,4033,.66369436E-3,.22121E-3,0
STARLINK-35554,2025-245F,2026-07-12T01:34:11.220960,15.31705647,.00011693,53.1586,65.8564,87.5043,272.6092,0,U,66239,999,4014,.45254113E-3,.13706E-3,0
STARLINK-35546,2025-245G,2026-07-11T21:07:59.811168,15.30206244,.0001196,53.1584,66.8367,100.6460,259.4675,0,U,66240,999,4027,.29518E-3,.8395E-4,0
STARLINK-35497,2025-245H,2026-07-12T01:44:04.994592,15.30203547,.00011257,53.1594,65.8976,98.8444,261.2684,0,U,66241,999,4025,.69986007E-3,.20428E-3,0
STARLINK-35480,2025-245J,2026-07-12T01:25:59.707776,15.30240272,.0002309,53.1594,66.5245,92.4869,267.6396,0,U,66242,999,4029,.84655577E-3,.24829E-3,0
STARLINK-35495,2025-245K,2026-07-11T20:57:19.843776,15.30231801,.00011611,53.1586,66.7858,125.7595,234.3514,0,U,66243,999,4026,-.51677199E-3,-.15648E-3,0
STARLINK-35517,2025-245L,2026-07-11T20:48:14.493888,15.30205654,.00009353,53.1588,66.7464,94.6276,265.4832,0,U,66244,999,4006,.66232339E-3,.19311E-3,0
STARLINK-35503,2025-245M,2026-07-11T20:39:17.052192,15.30211976,.00012891,53.1599,67.4179,72.8373,287.2769,0,U,66245,999,4021,.46867954E-3,.13552E-3,0
STARLINK-35434,2025-245N,2026-07-12T00:53:51.786816,15.31709924,.0001313,53.1571,65.6868,47.4955,312.6157,0,U,66246,999,4009,.57431808E-3,.17504E-3,0
STARLINK-35481,2025-245P,2026-07-12T15:06:13.426848,15.31701621,.00013942,53.1607,62.9757,61.0461,299.0680,0,U,66247,999,4039,.45954061E-3,.13922E-3,0
STARLINK-35416,2025-245Q,2026-07-12T00:33:41.474880,15.31711821,.00008298,53.1583,65.5915,107.3113,252.7980,0,U,66248,999,4024,.50398907E-3,.15312E-3,0
STARLINK-35304,2025-245R,2026-07-11T20:52:46.730784,15.31712049,.00012525,53.1603,66.7644,93.4882,266.6263,0,U,66249,999,4005,.53115544E-3,.16159E-3,0
STARLINK-35338,2025-245S,2026-07-12T02:00:55.600704,15.31727681,.00009343,53.1568,65.2591,142.6342,217.4725,0,U,66250,999,4021,.6228255E-3,.19028E-3,0
STARLINK-35485,2025-245T,2026-07-12T00:20:15.070848,15.31702536,.00013616,53.1579,65.5302,110.5762,249.5386,0,U,66251,999,4008,.32852917E-3,.9844E-4,0
STARLINK-35483,2025-245U,2026-07-11T21:00:24.039936,15.30202444,.00009733,53.1596,66.7951,82.1169,277.9942,0,U,66252,999,4022,.56894936E-3,.1653E-3,0
STARLINK-35486,2025-245V,2026-07-12T00:47:08.079360,15.31711255,.00011056,53.1586,65.6477,96.9130,263.1997,0,U,66253,999,4009,.54297203E-3,.16527E-3,0
STARLINK-35488,2025-245W,2026-07-12T01:14:01.048128,15.31717515,.0000832,53.1595,65.7637,51.5010,308.6066,0,U,66254,999,4030,.46543119E-3,.14113E-3,0
STARLINK-35616,2025-245X,2026-07-12T01:04:44.558688,15.30190096,.00012551,53.1622,66.4288,72.6017,287.5121,0,U,66255,999,4029,.41845264E-3,.12051E-3,0
STARLINK-35619,2025-245Y,2026-07-12T01:31:55.219584,15.30209221,.00012584,53.1592,65.8364,78.8822,281.2320,0,U,66256,999,4030,.61646901E-3,.17948E-3,0
STARLINK-35615,2025-245Z,2026-07-11T20:58:52.874112,15.30215677,.00011787,53.1603,66.7862,97.5841,262.5294,0,U,66257,999,4027,.37409263E-3,.10742E-3,0
STARLINK-34650,2025-245AA,2026-07-11T21:03:26.343072,15.30199980,.00011335,53.1594,66.8061,89.9766,270.1365,0,U,66258,999,4027,.56844409E-3,.16514E-3,0
STARLINK-35529,2025-245AB,2026-07-11T20:38:51.690336,15.31709425,.0001248,53.1599,66.7015,88.5159,271.5985,0,U,66259,999,4027,.40392589E-3,.12193E-3,0
STARLINK-35420,2025-245AC,2026-07-11T19:58:31.806048,15.31684956,.00011104,53.1589,66.5262,86.9968,273.1160,0,U,66260,999,4027,.90888468E-3,.27931E-3,0
STARLINK-35536,2025-245AD,2026-07-11T21:05:36.520224,15.31708156,.0001205,53.1576,66.1058,105.0873,255.0262,0,U,66261,999,4028,.48642899E-3,.14763E-3,0
STARLINK-35487,2025-245AE,2026-07-12T01:07:17.927328,15.31715044,.00012539,53.1599,65.7296,68.0469,292.0665,0,U,66262,999,4025,.61871226E-3,.18892E-3,0
STARLINK-35801,2025-247A,2026-07-12T14:12:37.889280,15.34398808,.00011765,53.1604,328.6800,46.9101,313.2000,0,U,66265,999,4019,.51431238E-3,.17039E-3,0
STARLINK-35056,2025-247B,2026-07-12T14:16:29.061984,15.34396672,.0001028,53.1593,330.8167,101.7711,258.3407,0,U,66266,999,4016,.21401751E-3,.6861E-4,0
STARLINK-35550,2025-247C,2026-07-12T14:15:39.245472,15.34390751,.00012493,53.1591,328.6474,92.5463,267.5683,0,U,66267,999,4019,.23178746E-3,.7461E-4,0
STARLINK-35069,2025-247D,2026-07-12T12:57:42.779808,15.34393068,.00008287,53.1576,330.4815,86.7369,273.3728,0,U,66268,999,4016,.59272815E-3,.19698E-3,0
STARLINK-34910,2025-247E,2026-07-12T13:09:07.394400,15.34387642,.00009655,53.1586,329.0667,114.8882,245.2221,0,U,66269,999,4018,.37120774E-3,.12181E-3,0
STARLINK-35757,2025-247F,2026-07-12T14:27:46.622880,15.34398048,.00006998,53.1577,328.7414,99.2113,260.8968,0,U,66270,999,4024,.312946E-3,.10211E-3,0
STARLINK-35745,2025-247G,2026-07-12T13:09:50.142528,15.34398333,.00010352,53.1596,330.5312,58.8388,301.2716,0,U,66271,999,4021,.61364086E-3,.20412E-3,0
STARLINK-35741,2025-247H,2026-07-12T14:00:30.935232,15.34391782,.00012243,53.1597,328.6220,45.5813,314.5290,0,U,66272,999,4024,.37205772E-3,.12212E-3,0
STARLINK-35730,2025-247J,2026-07-12T14:21:43.135488,15.34388321,.00007627,53.1595,328.7162,80.2234,279.8855,0,U,66273,999,4024,.71530554E-3,.2386E-3,0
STARLINK-35760,2025-247K,2026-07-12T14:25:27.060096,15.34393517,.00007068,53.1587,330.1488,94.6037,265.5046,0,U,66274,999,4017,.42008698E-3,.13841E-3,0
STARLINK-35752,2025-247L,2026-07-12T13:21:57.319488,15.34397628,.00011455,53.1597,330.5835,78.4448,281.6683,0,U,66275,999,4016,.44155229E-3,.1457E-3,0
STARLINK-35742,2025-247M,2026-07-12T13:49:13.180800,15.34399742,.00012787,53.1607,330.6972,111.5196,248.5943,0,U,66276,999,4021,.7112955E-3,.23732E-3,0
STARLINK-35708,2025-247N,2026-07-12T13:03:04.151520,15.34396527,.00010164,53.1591,329.0851,94.2515,265.8604,0,U,66277,999,4023,.21035187E-3,.6737E-4,0
STARLINK-35713,2025-247P,2026-07-12T13:57:28.879200,15.34405678,.00009736,53.1612,328.6077,78.9904,281.1208,0,U,66278,999,4024,.82611025E-3,.27643E-3,0
STARLINK-35724,2025-247Q,2026-07-12T14:22:25.161312,15.34387733,.0002029,53.1600,330.1348,146.3829,213.7303,0,U,66279,999,4017,.2757482E-3,.8948E-4,0
STARLINK-35726,2025-247R,2026-07-12T14:06:34.419168,15.34398070,.00010173,53.1593,328.6498,93.8135,266.2984,0,U,66280,999,4019,.69794298E-3,.23277E-3,0
STARLINK-35727,2025-247S,2026-07-12T13:06:48.292128,15.34397773,.00015449,53.1588,330.5177,128.4408,231.6733,0,U,66281,999,4016,.55587911E-3,.1845E-3,0
STARLINK-35776,2025-247T,2026-07-12T13:00:44.589600,15.34389078,.000077,53.1584,330.4890,88.1330,271.9761,0,U,66282,999,4016,.42506487E-3,.14007E-3,0
STARLINK-35774,2025-247U,2026-07-12T13:12:51.396768,15.34403441,.00012034,53.1602,330.5382,130.0961,230.0147,0,U,66283,999,4016,.31089136E-3,.10143E-3,0
STARLINK-35830,2025-247V,2026-07-12T13:31:02.433504,15.34400889,.00010494,53.1604,330.6170,101.0917,259.0204,0,U,66284,999,4016,.49631238E-3,.1643E-3,0
STARLINK-35819,2025-247W,2026-07-12T13:40:08.082336,15.34400202,.00007801,53.1603,330.6549,72.4573,287.6515,0,U,66285,999,4016,.60187544E-3,.20014E-3,0
STARLINK-35783,2025-247X,2026-07-12T14:07:23.765664,15.34405675,.00011722,53.1609,330.7706,82.1589,277.9547,0,U,66286,999,4016,.78549091E-3,.26261E-3,0
